{
  "norad_id": 43005,
  "name": "MOHAMMED VI-A",
  "history": [
    {
      "epoch": "2026-04-11T21:23:42.205344Z",
      "apogee_km": 639.3311086277099,
      "perigee_km": 637.8267247351741,
      "latitude_deg": 1.565418997832158e-05,
      "longitude_deg": 14.09429981381012,
      "height_km": 641.4941858141677,
      "semi_major_axis_km": 7016.715916681442,
      "eccentricity": 0.0001072,
      "inclination_deg": 97.9586,
      "raan_deg": 175.1246,
      "arg_perigee_deg": 82.4532,
      "mean_anomaly_deg": 277.68,
      "mean_motion_rev_day": 14.7707287
    },
    {
      "epoch": "2026-04-13T07:32:14.071200Z",
      "apogee_km": 639.3258177878697,
      "perigee_km": 637.8145593935897,
      "latitude_deg": 3.124031698068755e-05,
      "longitude_deg": -138.03704695961846,
      "height_km": 641.4990397714452,
      "semi_major_axis_km": 7016.707188590729,
      "eccentricity": 0.00010769,
      "inclination_deg": 97.9586,
      "raan_deg": 176.5282,
      "arg_perigee_deg": 83.5259,
      "mean_anomaly_deg": 276.6074,
      "mean_motion_rev_day": 14.77075626
    },
    {
      "epoch": "2026-04-14T20:55:51.976704Z",
      "apogee_km": 639.3202212569386,
      "perigee_km": 637.8326780056168,
      "latitude_deg": 5.9218261933524507e-05,
      "longitude_deg": 21.056499900412373,
      "height_km": 641.4894915681562,
      "semi_major_axis_km": 7016.713449631277,
      "eccentricity": 0.000106,
      "inclination_deg": 97.9587,
      "raan_deg": 178.0654,
      "arg_perigee_deg": 82.1932,
      "mean_anomaly_deg": 277.9399,
      "mean_motion_rev_day": 14.77073649
    },
    {
      "epoch": "2026-04-15T21:19:06.148704Z",
      "apogee_km": 639.310469721976,
      "perigee_km": 637.8355572771379,
      "latitude_deg": 4.612028716536083e-05,
      "longitude_deg": 15.24830410263284,
      "height_km": 641.4939090328191,
      "semi_major_axis_km": 7016.710013499556,
      "eccentricity": 0.0001051,
      "inclination_deg": 97.9587,
      "raan_deg": 179.0678,
      "arg_perigee_deg": 82.7401,
      "mean_anomaly_deg": 277.3929,
      "mean_motion_rev_day": 14.77074734
    },
    {
      "epoch": "2026-04-16T20:04:47.239968Z",
      "apogee_km": 639.3229428652276,
      "perigee_km": 637.8059320144521,
      "latitude_deg": 1.3890162206633502e-05,
      "longitude_deg": 33.828118722747185,
      "height_km": 641.5484461688649,
      "semi_major_axis_km": 7016.7014374398395,
      "eccentricity": 0.0001081,
      "inclination_deg": 97.9588,
      "raan_deg": 180.0036,
      "arg_perigee_deg": 87.7305,
      "mean_anomaly_deg": 272.4029,
      "mean_motion_rev_day": 14.77077442
    },
    {
      "epoch": "2026-04-17T23:43:07.193280Z",
      "apogee_km": 639.3205852081328,
      "perigee_km": 637.8103101732913,
      "latitude_deg": -3.960780919894735e-05,
      "longitude_deg": -20.754099486202314,
      "height_km": 641.5676170913679,
      "semi_major_axis_km": 7016.702447690712,
      "eccentricity": 0.00010762,
      "inclination_deg": 97.9587,
      "raan_deg": 181.1396,
      "arg_perigee_deg": 89.0973,
      "mean_anomaly_deg": 271.036,
      "mean_motion_rev_day": 14.77077123
    },
    {
      "epoch": "2026-04-18T20:51:15.401664Z",
      "apogee_km": 639.3091180194951,
      "perigee_km": 637.8257866982658,
      "latitude_deg": 8.006560185565813e-05,
      "longitude_deg": 22.212373479358735,
      "height_km": 641.5694404538762,
      "semi_major_axis_km": 7016.70445235888,
      "eccentricity": 0.0001057,
      "inclination_deg": 97.9585,
      "raan_deg": 182.0083,
      "arg_perigee_deg": 89.0654,
      "mean_anomaly_deg": 271.0678,
      "mean_motion_rev_day": 14.7707649
    },
    {
      "epoch": "2026-04-19T21:14:29.363712Z",
      "apogee_km": 639.2968928745458,
      "perigee_km": 637.8261928599613,
      "latitude_deg": -1.3818879215305589e-05,
      "longitude_deg": 16.4050630241074,
      "height_km": 641.5975766869757,
      "semi_major_axis_km": 7016.698542867253,
      "eccentricity": 0.0001048,
      "inclination_deg": 97.9582,
      "raan_deg": 183.0107,
      "arg_perigee_deg": 91.7067,
      "mean_anomaly_deg": 268.4263,
      "mean_motion_rev_day": 14.77078356
    },
    {
      "epoch": "2026-04-20T15:07:31.465056Z",
      "apogee_km": 639.3025388797023,
      "perigee_km": 637.798441749278,
      "latitude_deg": 8.572784658591938e-06,
      "longitude_deg": 108.14713639790033,
      "height_km": 641.5710399552777,
      "semi_major_axis_km": 7016.68749031449,
      "eccentricity": 0.00010718,
      "inclination_deg": 97.9578,
      "raan_deg": 183.746,
      "arg_perigee_deg": 90.4911,
      "mean_anomaly_deg": 269.6422,
      "mean_motion_rev_day": 14.77081846
    },
    {
      "epoch": "2026-04-21T20:23:24.028224Z",
      "apogee_km": 639.3050763384272,
      "perigee_km": 637.7880693499774,
      "latitude_deg": 7.440056222050544e-06,
      "longitude_deg": 29.179165861104593,
      "height_km": 641.5829339128062,
      "semi_major_axis_km": 7016.683572844202,
      "eccentricity": 0.0001081,
      "inclination_deg": 97.9574,
      "raan_deg": 184.9489,
      "arg_perigee_deg": 91.6813,
      "mean_anomaly_deg": 268.4521,
      "mean_motion_rev_day": 14.77083083
    },
    {
      "epoch": "2026-04-22T20:46:37.837344Z",
      "apogee_km": 639.3135830950259,
      "perigee_km": 637.7839455983994,
      "latitude_deg": 1.2727970934200373e-06,
      "longitude_deg": 23.372480770377933,
      "height_km": 641.5768338537013,
      "semi_major_axis_km": 7016.685764346713,
      "eccentricity": 0.000109,
      "inclination_deg": 97.9572,
      "raan_deg": 185.9513,
      "arg_perigee_deg": 91.0469,
      "mean_anomaly_deg": 269.0866,
      "mean_motion_rev_day": 14.77082391
    },
    {
      "epoch": "2026-04-23T14:39:39.855744Z",
      "apogee_km": 639.3210027451378,
      "perigee_km": 637.7689126960913,
      "latitude_deg": 4.430186666340843e-05,
      "longitude_deg": 115.11489794838707,
      "height_km": 641.6121163881872,
      "semi_major_axis_km": 7016.681957720614,
      "eccentricity": 0.0001106,
      "inclination_deg": 97.9572,
      "raan_deg": 186.6866,
      "arg_perigee_deg": 93.9221,
      "mean_anomaly_deg": 266.2116,
      "mean_motion_rev_day": 14.77083593
    },
    {
      "epoch": "2026-04-24T16:40:26.386176Z",
      "apogee_km": 639.320725964697,
      "perigee_km": 637.7553057686582,
      "latitude_deg": -3.086650284267575e-05,
      "longitude_deg": 84.92211740658644,
      "height_km": 641.6303026743644,
      "semi_major_axis_km": 7016.675015866677,
      "eccentricity": 0.00011155,
      "inclination_deg": 97.957,
      "raan_deg": 187.756,
      "arg_perigee_deg": 95.7336,
      "mean_anomaly_deg": 264.4001,
      "mean_motion_rev_day": 14.77085785
    },
    {
      "epoch": "2026-04-26T22:19:34.628160Z",
      "apogee_km": 639.3482073541727,
      "perigee_km": 637.8351199851386,
      "latitude_deg": -3.566213631521117e-05,
      "longitude_deg": 0.13955542489430756,
      "height_km": 641.658524997945,
      "semi_major_axis_km": 7016.728663669655,
      "eccentricity": 0.00010782,
      "inclination_deg": 97.9572,
      "raan_deg": 189.9612,
      "arg_perigee_deg": 93.998,
      "mean_anomaly_deg": 266.1353,
      "mean_motion_rev_day": 14.77068845
    },
    {
      "epoch": "2026-04-27T21:05:16.161792Z",
      "apogee_km": 639.3263582721493,
      "perigee_km": 637.8528456857339,
      "latitude_deg": 1.6404566235614912e-05,
      "longitude_deg": 18.717209033832845,
      "height_km": 641.6770383785513,
      "semi_major_axis_km": 7016.726601978941,
      "eccentricity": 0.000105,
      "inclination_deg": 97.9574,
      "raan_deg": 190.8967,
      "arg_perigee_deg": 95.7083,
      "mean_anomaly_deg": 264.4247,
      "mean_motion_rev_day": 14.77069496
    },
    {
      "epoch": "2026-04-28T19:50:57.522624Z",
      "apogee_km": 639.3240919117943,
      "perigee_km": 637.8337414510906,
      "latitude_deg": 5.092561230186139e-06,
      "longitude_deg": 37.2956933501411,
      "height_km": 641.6816886931807,
      "semi_major_axis_km": 7016.715916681442,
      "eccentricity": 0.0001062,
      "inclination_deg": 97.9575,
      "raan_deg": 191.8323,
      "arg_perigee_deg": 96.8305,
      "mean_anomaly_deg": 263.3026,
      "mean_motion_rev_day": 14.7707287
    },
    {
      "epoch": "2026-04-29T20:14:11.747328Z",
      "apogee_km": 639.3443228975793,
      "perigee_km": 637.7978404363803,
      "latitude_deg": -4.1746729374755285e-05,
      "longitude_deg": 31.487380408105114,
      "height_km": 641.6813250990024,
      "semi_major_axis_km": 7016.7080816669795,
      "eccentricity": 0.0001102,
      "inclination_deg": 97.9577,
      "raan_deg": 192.8348,
      "arg_perigee_deg": 97.1434,
      "mean_anomaly_deg": 262.9901,
      "mean_motion_rev_day": 14.77075344
    },
    {
      "epoch": "2026-04-30T14:07:14.111328Z",
      "apogee_km": 639.3512806043045,
      "perigee_km": 637.7803811745243,
      "latitude_deg": 1.4755821437479594e-05,
      "longitude_deg": 123.22835294588691,
      "height_km": 641.7015908086785,
      "semi_major_axis_km": 7016.702830889414,
      "eccentricity": 0.00011194,
      "inclination_deg": 97.9576,
      "raan_deg": 193.5701,
      "arg_perigee_deg": 98.9127,
      "mean_anomaly_deg": 261.221,
      "mean_motion_rev_day": 14.77077002
    },
    {
      "epoch": "2026-05-02T11:38:36.497760Z",
      "apogee_km": 639.3489402015284,
      "perigee_km": 637.7715866567105,
      "latitude_deg": -3.560045797412169e-05,
      "longitude_deg": 160.38642206784178,
      "height_km": 641.6971925715296,
      "semi_major_axis_km": 7016.69726342912,
      "eccentricity": 0.0001124,
      "inclination_deg": 97.9575,
      "raan_deg": 195.441,
      "arg_perigee_deg": 98.9615,
      "mean_anomaly_deg": 261.1722,
      "mean_motion_rev_day": 14.7707876
    }
  ]
}